start=new Date('2022-08-16T00:00:00.000Z').valueOf();
sats=[{"REV_AT_EPOCH":"13860","EPHEMERIS_TYPE":"0","TLE_LINE1":"1 45192U 20012Q   22227.71139735 -.00000034  00000-0  16649-4 0  9995","SITE":"AFETR","LAUNCH_DATE":"2020-02-17","CENTER_NAME":"EARTH","MEAN_MOTION_DDOT":"0.0000000000000","DECAY_DATE":null,"MEAN_ANOMALY":"284.9787","OBJECT_ID":"2020-012Q","MEAN_ELEMENT_THEORY":"SGP4","GP_ID":"210297136","CLASSIFICATION_TYPE":"U","OBJECT_TYPE":"PAYLOAD","SEMIMAJOR_AXIS":"6925.370","BSTAR":"0.00001664900000","TIME_SYSTEM":"UTC","ELEMENT_SET_NO":"999","ARG_OF_PERICENTER":"75.1378","PERIOD":"95.593","RA_OF_ASC_NODE":"131.4218","FILE":"3537378","REF_FRAME":"TEME","INCLINATION":"53.0560","RCS_SIZE":"LARGE","NORAD_CAT_ID":"45192","COUNTRY_CODE":"US","MEAN_MOTION_DOT":"-0.00000034","TLE_LINE2":"2 45192  53.0560 131.4218 0001583  75.1378 284.9787 15.06393026138608","APOAPSIS":"548.331","ECCENTRICITY":"0.00015830","OBJECT_NAME":"STARLINK-1237","PERIAPSIS":"546.139","MEAN_MOTION":"15.06393026","EPOCH":"2022-08-15T17:04:24.731040"},{"TLE_LINE2":"2 45193  53.0552 133.8619 0001478  68.4434 291.6713 15.06393219138464","APOAPSIS":"548.258","COUNTRY_CODE":"US","MEAN_MOTION_DOT":"-0.00000303","MEAN_MOTION":"15.06393219","EPOCH":"2022-08-15T04:04:11.019072","PERIAPSIS":"546.211","ECCENTRICITY":"0.00014780","OBJECT_NAME":"STARLINK-1239","REF_FRAME":"TEME","FILE":"3537056","RCS_SIZE":"LARGE","NORAD_CAT_ID":"45193","INCLINATION":"53.0552","BSTAR":"-0.00000142560000","OBJECT_TYPE":"PAYLOAD","SEMIMAJOR_AXIS":"6925.369","CLASSIFICATION_TYPE":"U","OBJECT_ID":"2020-012R","GP_ID":"210265809","MEAN_ELEMENT_THEORY":"SGP4","RA_OF_ASC_NODE":"133.8619","ARG_OF_PERICENTER":"68.4434","PERIOD":"95.593","ELEMENT_SET_NO":"999","TIME_SYSTEM":"UTC","TLE_LINE1":"1 45193U 20012R   22227.16957198 -.00000303  00000-0 -14256-5 0  9999","EPHEMERIS_TYPE":"0","REV_AT_EPOCH":"13846","MEAN_ANOMALY":"291.6713","MEAN_MOTION_DDOT":"0.0000000000000","DECAY_DATE":null,"SITE":"AFETR","LAUNCH_DATE":"2020-02-17","CENTER_NAME":"EARTH"},{"FILE":"3537056","REF_FRAME":"TEME","NORAD_CAT_ID":"45194","RCS_SIZE":"LARGE","INCLINATION":"53.0541","MEAN_MOTION_DOT":"-0.00000024","COUNTRY_CODE":"US","APOAPSIS":"548.215","TLE_LINE2":"2 45194  53.0541 133.8497 0001436  70.1436 289.9708 15.06397810138413","PERIAPSIS":"546.226","OBJECT_NAME":"STARLINK-1240","ECCENTRICITY":"0.00014360","MEAN_MOTION":"15.06397810","EPOCH":"2022-08-15T04:09:29.056608","EPHEMERIS_TYPE":"0","REV_AT_EPOCH":"13841","TLE_LINE1":"1 45194U 20012S   22227.17325297 -.00000024  00000-0  17311-4 0  9993","DECAY_DATE":null,"MEAN_MOTION_DDOT":"0.0000000000000","CENTER_NAME":"EARTH","LAUNCH_DATE":"2020-02-17","SITE":"AFETR","MEAN_ANOMALY":"289.9708","CLASSIFICATION_TYPE":"U","MEAN_ELEMENT_THEORY":"SGP4","GP_ID":"210265556","OBJECT_ID":"2020-012S","OBJECT_TYPE":"PAYLOAD","SEMIMAJOR_AXIS":"6925.355","BSTAR":"0.00001731100000","ELEMENT_SET_NO":"999","TIME_SYSTEM":"UTC","RA_OF_ASC_NODE":"133.8497","PERIOD":"95.592","ARG_OF_PERICENTER":"70.1436"},{"TLE_LINE1":"1 45195U 20012T   22227.17699358  .00010295  00000-0  61270-3 0  9998","REV_AT_EPOCH":"13856","EPHEMERIS_TYPE":"0","MEAN_ANOMALY":"239.9279","SITE":"AFETR","LAUNCH_DATE":"2020-02-17","CENTER_NAME":"EARTH","MEAN_MOTION_DDOT":"0.0000000000000","DECAY_DATE":null,"SEMIMAJOR_AXIS":"6908.912","OBJECT_TYPE":"PAYLOAD","BSTAR":"0.00061270000000","OBJECT_ID":"2020-012T","MEAN_ELEMENT_THEORY":"SGP4","GP_ID":"210264817","CLASSIFICATION_TYPE":"U","ARG_OF_PERICENTER":"120.1867","PERIOD":"95.252","RA_OF_ASC_NODE":"130.4275","TIME_SYSTEM":"UTC","ELEMENT_SET_NO":"999","REF_FRAME":"TEME","FILE":"3537056","INCLINATION":"53.0508","RCS_SIZE":"LARGE","NORAD_CAT_ID":"45195","TLE_LINE2":"2 45195  53.0508 130.4275 0001563 120.1867 239.9279 15.11778979138568","APOAPSIS":"531.857","COUNTRY_CODE":"US","MEAN_MOTION_DOT":"0.00010295","MEAN_MOTION":"15.11778979","EPOCH":"2022-08-15T04:14:52.245312","ECCENTRICITY":"0.00015630","OBJECT_NAME":"STARLINK-1241","PERIAPSIS":"529.697"},{"NORAD_CAT_ID":"45196","RCS_SIZE":"LARGE","INCLINATION":"53.0546","REF_FRAME":"TEME","FILE":"3537056","EPOCH":"2022-08-15T03:42:55.910592","MEAN_MOTION":"15.06399305","PERIAPSIS":"545.929","OBJECT_NAME":"STARLINK-1244","ECCENTRICITY":"0.00018580","APOAPSIS":"548.502","TLE_LINE2":"2 45196  53.0546 133.9362 0001858  57.6529 302.4639 15.06399305138564","MEAN_MOTION_DOT":"0.00000107","COUNTRY_CODE":"US","MEAN_ANOMALY":"302.4639","DECAY_DATE":null,"MEAN_MOTION_DDOT":"0.0000000000000","CENTER_NAME":"EARTH","LAUNCH_DATE":"2020-02-17","SITE":"AFETR","TLE_LINE1":"1 45196U 20012U   22227.15481378  .00000107  00000-0  26062-4 0  9990","EPHEMERIS_TYPE":"0","REV_AT_EPOCH":"13856","RA_OF_ASC_NODE":"133.9362","PERIOD":"95.592","ARG_OF_PERICENTER":"57.6529","ELEMENT_SET_NO":"999","TIME_SYSTEM":"UTC","OBJECT_TYPE":"PAYLOAD","SEMIMAJOR_AXIS":"6925.351","BSTAR":"0.00002606200000","CLASSIFICATION_TYPE":"U","MEAN_ELEMENT_THEORY":"SGP4","GP_ID":"210265059","OBJECT_ID":"2020-012U"},{"APOAPSIS":"548.486","TLE_LINE2":"2 45197  53.0534 131.3003 0001838  64.1722 295.9457 15.06400195138577","MEAN_MOTION_DOT":"0.00005015","COUNTRY_CODE":"US","MEAN_MOTION":"15.06400195","EPOCH":"2022-08-15T17:46:52.752576","OBJECT_NAME":"STARLINK-1269","ECCENTRICITY":"0.00018380","PERIAPSIS":"545.940","REF_FRAME":"TEME","FILE":"3537378","INCLINATION":"53.0534","NORAD_CAT_ID":"45197","RCS_SIZE":"LARGE","OBJECT_TYPE":"PAYLOAD","SEMIMAJOR_AXIS":"6925.348","BSTAR":"0.00035533000000","GP_ID":"210295894","MEAN_ELEMENT_THEORY":"SGP4","OBJECT_ID":"2020-012V","CLASSIFICATION_TYPE":"U","PERIOD":"95.592","ARG_OF_PERICENTER":"64.1722","RA_OF_ASC_NODE":"131.3003","TIME_SYSTEM":"UTC","ELEMENT_SET_NO":"999","TLE_LINE1":"1 45197U 20012V   22227.74088834  .00005015  00000-0  35533-3 0  9991","REV_AT_EPOCH":"13857","EPHEMERIS_TYPE":"0","MEAN_ANOMALY":"295.9457","CENTER_NAME":"EARTH","LAUNCH_DATE":"2020-02-17","SITE":"AFETR","DECAY_DATE":null,"MEAN_MOTION_DDOT":"0.0000000000000"},{"OBJECT_TYPE":"PAYLOAD","BSTAR":"0.00048278000000","SEMIMAJOR_AXIS":"6925.336","CLASSIFICATION_TYPE":"U","OBJECT_ID":"2020-012W","GP_ID":"210296143","MEAN_ELEMENT_THEORY":"SGP4","RA_OF_ASC_NODE":"111.0378","ARG_OF_PERICENTER":"70.4262","PERIOD":"95.592","ELEMENT_SET_NO":"999","TIME_SYSTEM":"UTC","TLE_LINE1":"1 45198U 20012W   22227.79800515  .00006917  00000-0  48278-3 0  9997","EPHEMERIS_TYPE":"0","REV_AT_EPOCH":"13883","MEAN_ANOMALY":"289.6906","MEAN_MOTION_DDOT":"0.0000000000000","DECAY_DATE":null,"SITE":"AFETR","CENTER_NAME":"EARTH","LAUNCH_DATE":"2020-02-17","TLE_LINE2":"2 45198  53.0540 111.0378 0001652  70.4262 289.6906 15.06404056138836","APOAPSIS":"548.345","COUNTRY_CODE":"US","MEAN_MOTION_DOT":"0.00006917","EPOCH":"2022-08-15T19:09:07.644960","MEAN_MOTION":"15.06404056","PERIAPSIS":"546.057","ECCENTRICITY":"0.00016520","OBJECT_NAME":"STARLINK-1154","REF_FRAME":"TEME","FILE":"3537378","RCS_SIZE":"LARGE","NORAD_CAT_ID":"45198","INCLINATION":"53.0540"},{"MEAN_ELEMENT_THEORY":"SGP4","GP_ID":"210296395","OBJECT_ID":"2020-012X","CLASSIFICATION_TYPE":"U","OBJECT_TYPE":"PAYLOAD","SEMIMAJOR_AXIS":"6925.345","BSTAR":"-0.00000004120400","TIME_SYSTEM":"UTC","ELEMENT_SET_NO":"999","PERIOD":"95.592","ARG_OF_PERICENTER":"83.9179","RA_OF_ASC_NODE":"111.0195","REV_AT_EPOCH":"13889","EPHEMERIS_TYPE":"0","TLE_LINE1":"1 45199U 20012X   22227.80169845 -.00000282  00000-0 -41204-7 0  9991","CENTER_NAME":"EARTH","LAUNCH_DATE":"2020-02-17","SITE":"AFETR","DECAY_DATE":null,"MEAN_MOTION_DDOT":"0.0000000000000","MEAN_ANOMALY":"276.1986","MEAN_MOTION_DOT":"-0.00000282","COUNTRY_CODE":"US","APOAPSIS":"548.275","TLE_LINE2":"2 45199  53.0558 111.0195 0001538  83.9179 276.1986 15.06401075138895","OBJECT_NAME":"STARLINK-1197","ECCENTRICITY":"0.00015380","PERIAPSIS":"546.145","MEAN_MOTION":"15.06401075","EPOCH":"2022-08-15T19:14:26.746080","FILE":"3537378","REF_FRAME":"TEME","INCLINATION":"53.0558","NORAD_CAT_ID":"45199","RCS_SIZE":"LARGE"},{"COUNTRY_CODE":"US","MEAN_MOTION_DOT":"0.00000573","TLE_LINE2":"2 45201  53.0554 111.5731 0001537  78.2295 281.8867 15.06393301138872","APOAPSIS":"548.299","PERIAPSIS":"546.170","ECCENTRICITY":"0.00015370","OBJECT_NAME":"STARLINK-1199","MEAN_MOTION":"15.06393301","EPOCH":"2022-08-15T16:13:58.940832","FILE":"3537378","REF_FRAME":"TEME","RCS_SIZE":"LARGE","NORAD_CAT_ID":"45201","INCLINATION":"53.0554","CLASSIFICATION_TYPE":"U","OBJECT_ID":"2020-012Z","MEAN_ELEMENT_THEORY":"SGP4","GP_ID":"210297137","SEMIMAJOR_AXIS":"6925.369","OBJECT_TYPE":"PAYLOAD","BSTAR":"0.00005734600000","ELEMENT_SET_NO":"999","TIME_SYSTEM":"UTC","RA_OF_ASC_NODE":"111.5731","ARG_OF_PERICENTER":"78.2295","PERIOD":"95.593","EPHEMERIS_TYPE":"0","REV_AT_EPOCH":"13887","TLE_LINE1":"1 45201U 20012Z   22227.67637663  .00000573  00000-0  57346-4 0  9990","MEAN_MOTION_DDOT":"0.0000000000000","DECAY_DATE":null,"SITE":"AFETR","CENTER_NAME":"EARTH","LAUNCH_DATE":"2020-02-17","MEAN_ANOMALY":"281.8867"},{"SITE":"AFETR","CENTER_NAME":"EARTH","LAUNCH_DATE":"2020-02-17","MEAN_MOTION_DDOT":"0.0000000000000","DECAY_DATE":null,"MEAN_ANOMALY":"292.1901","REV_AT_EPOCH":"13874","EPHEMERIS_TYPE":"0","TLE_LINE1":"1 45202U 20012AA  22227.09676874  .00012429  00000-0  63281-3 0  9991","TIME_SYSTEM":"UTC","ELEMENT_SET_NO":"999","ARG_OF_PERICENTER":"67.9298","PERIOD":"94.913","RA_OF_ASC_NODE":"115.1972","OBJECT_ID":"2020-012AA","GP_ID":"210265810","MEAN_ELEMENT_THEORY":"SGP4","CLASSIFICATION_TYPE":"U","OBJECT_TYPE":"PAYLOAD","BSTAR":"0.00063281000000","SEMIMAJOR_AXIS":"6892.516","INCLINATION":"52.9781","RCS_SIZE":"LARGE","NORAD_CAT_ID":"45202","FILE":"3537056","REF_FRAME":"TEME","ECCENTRICITY":"0.00019440","OBJECT_NAME":"STARLINK-1203","PERIAPSIS":"513.041","EPOCH":"2022-08-15T02:19:20.819136","MEAN_MOTION":"15.17176414","COUNTRY_CODE":"US","MEAN_MOTION_DOT":"0.00012429","TLE_LINE2":"2 45202  52.9781 115.1972 0001944  67.9298 292.1901 15.17176414138746","APOAPSIS":"515.721"}];
